{"type": "FeatureCollection", "features": [ {"type": "Feature", "properties": {"norad_id": 33698, "name": "FENGYUN 1C DEB", "group": "fengyun-1c-debris", "lat": -80.24064001104263, "lon": 60.71881335870544, "alt_km": 709.3335430112174, "timestamp": "2025-12-25T07:00:34.335626+00:00", "meta": {"OBJECT_NAME": "FENGYUN 1C DEB", "OBJECT_ID": "1999-025DGK", "EPOCH": "2025-12-22T15:06:08.624736", "MEAN_MOTION": 14.55738562, "ECCENTRICITY": 0.01377331, "INCLINATION": 99.6233, "RA_OF_ASC_NODE": 318.2062, "ARG_OF_PERICENTER": 188.3951, "MEAN_ANOMALY": 171.4937, "EPHEMERIS_TYPE": 0, "CLASSIFICATION_TYPE": "U", "NORAD_CAT_ID": 33698, "ELEMENT_SET_NO": 999, "REV_AT_EPOCH": 95780, "BSTAR": 0.00019326653, "MEAN_MOTION_DOT": 8.92e-06, "MEAN_MOTION_DDOT": 0}, "tle": {"line1": "1 33698U 99025DGK 25356.62926649  .00000892  00000+0  19327-3 0  9992", "line2": "2 33698  99.6233 318.2062 0137733 188.3951 171.4937 14.55738562957801"}}, "geometry": {"type": "Point", "coordinates": [60.71881335870544, -80.24064001104263]}}, {"type": "Feature", "properties": {"norad_id": 33710, "name": "FENGYUN 1C DEB", "group": "fengyun-1c-debris", "lat": -8.87968614792725, "lon": -83.26995653101935, "alt_km": 847.8428120592744, "timestamp": "2025-12-25T07:00:34.335637+00:00", "meta": {"OBJECT_NAME": "FENGYUN 1C DEB", "OBJECT_ID": "1999-025DGX", "EPOCH": "2025-12-21T00:03:36.214272", "MEAN_MOTION": 14.11669685, "ECCENTRICITY": 0.0055755, "INCLINATION": 98.9796, "RA_OF_ASC_NODE": 93.8537, "ARG_OF_PERICENTER": 124.643, "MEAN_ANOMALY": 236.0015, "EPHEMERIS_TYPE": 0, "CLASSIFICATION_TYPE": "U", "NORAD_CAT_ID": 33710, "ELEMENT_SET_NO": 999, "REV_AT_EPOCH": 67773, "BSTAR": 0.00081859653, "MEAN_MOTION_DOT": 1.467e-05, "MEAN_MOTION_DDOT": 0}, "tle": {"line1": "1 33710U 99025DGX 25355.00250248  .00001467  00000+0  81860-3 0  9993", "line2": "2 33710  98.9796  93.8537 0055755 124.6430 236.0015 14.11669685677730"}}, "geometry": {"type": "Point", "coordinates": [-83.26995653101935, -8.87968614792725]}}, {"type": "Feature", "properties": {"norad_id": 33711, "name": "FENGYUN 1C DEB", "group": "fengyun-1c-debris", "lat": -30.51790009006945, "lon": -132.6412225839646, "alt_km": 962.672379739086, "timestamp": "2025-12-25T07:00:34.335647+00:00", "meta": {"OBJECT_NAME": "FENGYUN 1C DEB", "OBJECT_ID": "1999-025DGY", "EPOCH": "2025-12-24T15:18:36.567072", "MEAN_MOTION": 14.00934927, "ECCENTRICITY": 0.0095544, "INCLINATION": 99.1807, "RA_OF_ASC_NODE": 52.1717, "ARG_OF_PERICENTER": 15.253, "MEAN_ANOMALY": 138.6573, "EPHEMERIS_TYPE": 0, "CLASSIFICATION_TYPE": "U", "NORAD_CAT_ID": 33711, "ELEMENT_SET_NO": 999, "REV_AT_EPOCH": 92098, "BSTAR": 0.00048099544, "MEAN_MOTION_DOT": 7.03e-06, "MEAN_MOTION_DDOT": 0}, "tle": {"line1": "1 33711U 99025DGY 25358.63792323  .00000703  00000+0  48100-3 0  9993", "line2": "2 33711  99.1807  52.1717 0095544  15.2530 138.6573 14.00934927920987"}}, "geometry": {"type": "Point", "coordinates": [-132.6412225839646, -30.51790009006945]}}, {"type": "Feature", "properties": {"norad_id": 33716, "name": "FENGYUN 1C DEB", "group": "fengyun-1c-debris", "lat": 35.82700757927011, "lon": 111.64929788501746, "alt_km": 847.0163974804464, "timestamp": "2025-12-25T07:00:34.335657+00:00", "meta": {"OBJECT_NAME": "FENGYUN 1C DEB", "OBJECT_ID": "1999-025DHD", "EPOCH": "2025-12-20T00:37:45.434784", "MEAN_MOTION": 14.32676609, "ECCENTRICITY": 0.00932596, "INCLINATION": 98.8749, "RA_OF_ASC_NODE": 279.7817, "ARG_OF_PERICENTER": 336.6348, "MEAN_ANOMALY": 23.061, "EPHEMERIS_TYPE": 0, "CLASSIFICATION_TYPE": "U", "NORAD_CAT_ID": 33716, "ELEMENT_SET_NO": 999, "REV_AT_EPOCH": 65262, "BSTAR": 0.00013018796, "MEAN_MOTION_DOT": 3.24e-06, "MEAN_MOTION_DDOT": 0}, "tle": {"line1": "1 33716U 99025DHD 25354.02622031  .00000324  00000+0  13019-3 0  9995", "line2": "2 33716  98.8749 279.7817 0093259 336.6348  23.0610 14.32676609652626"}}, "geometry": {"type": "Point", "coordinates": [111.64929788501746, 35.82700757927011]}}, {"type": "Feature", "properties": {"norad_id": 33718, "name": "FENGYUN 1C DEB", "group": "fengyun-1c-debris", "lat": -27.1864784977792, "lon": -98.24867153880994, "alt_km": 855.6214268307422, "timestamp": "2025-12-25T07:00:34.335668+00:00", "meta": {"OBJECT_NAME": "FENGYUN 1C DEB", "OBJECT_ID": "1999-025DHF", "EPOCH": "2025-12-19T23:49:22.963296", "MEAN_MOTION": 14.08105706, "ECCENTRICITY": 0.00982331, "INCLINATION": 99.6592, "RA_OF_ASC_NODE": 81.1024, "ARG_OF_PERICENTER": 299.7261, "MEAN_ANOMALY": 59.4158, "EPHEMERIS_TYPE": 0, "CLASSIFICATION_TYPE": "U", "NORAD_CAT_ID": 33718, "ELEMENT_SET_NO": 999, "REV_AT_EPOCH": 69288, "BSTAR": 0.0010316732, "MEAN_MOTION_DOT": 1.786e-05, "MEAN_MOTION_DDOT": 0}, "tle": {"line1": "1 33718U 99025DHF 25353.99262689  .00001786  00000+0  10317-2 0  9991", "line2": "2 33718  99.6592  81.1024 0098233 299.7261  59.4158 14.08105706692888"}}, "geometry": {"type": "Point", "coordinates": [-98.24867153880994, -27.1864784977792]}}, {"type": "Feature", "properties": {"norad_id": 33719, "name": "FENGYUN 1C DEB", "group": "fengyun-1c-debris", "lat": 53.75828908619271, "lon": 47.06226100168704, "alt_km": 787.0252750009167, "timestamp": "2025-12-25T07:00:34.335678+00:00", "meta": {"OBJECT_NAME": "FENGYUN 1C DEB", "OBJECT_ID": "1999-025DHG", "EPOCH": "2025-12-23T10:57:45.652032", "MEAN_MOTION": 14.23509629, "ECCENTRICITY": 0.00301549, "INCLINATION": 98.7741, "RA_OF_ASC_NODE": 57.3958, "ARG_OF_PERICENTER": 50.0095, "MEAN_ANOMALY": 324.8076, "EPHEMERIS_TYPE": 0, "CLASSIFICATION_TYPE": "U", "NORAD_CAT_ID": 33719, "ELEMENT_SET_NO": 999, "REV_AT_EPOCH": 92166, "BSTAR": 0.00068962426, "MEAN_MOTION_DOT": 1.532e-05, "MEAN_MOTION_DDOT": 0}, "tle": {"line1": "1 33719U 99025DHG 25357.45677838  .00001532  00000+0  68962-3 0  9992", "line2": "2 33719  98.7741  57.3958 0030154  50.0095 324.8076 14.23509629921665"}}, "geometry": {"type": "Point", "coordinates": [47.06226100168704, 53.75828908619271]}}, {"type": "Feature", "properties": {"norad_id": 33722, "name": "FENGYUN 1C DEB", "group": "fengyun-1c-debris", "lat": -37.1333150071757, "lon": -173.26873677021183, "alt_km": 712.9491473395747, "timestamp": "2025-12-25T07:00:34.335688+00:00", "meta": {"OBJECT_NAME": "FENGYUN 1C DEB", "OBJECT_ID": "1999-025DHK", "EPOCH": "2025-12-23T18:30:20.892960", "MEAN_MOTION": 14.21389209, "ECCENTRICITY": 0.01584927, "INCLINATION": 98.574, "RA_OF_ASC_NODE": 11.8133, "ARG_OF_PERICENTER": 219.6106, "MEAN_ANOMALY": 139.3406, "EPHEMERIS_TYPE": 0, "CLASSIFICATION_TYPE": "U", "NORAD_CAT_ID": 33722, "ELEMENT_SET_NO": 999, "REV_AT_EPOCH": 92304, "BSTAR": 0.00051479883, "MEAN_MOTION_DOT": 1.233e-05, "MEAN_MOTION_DDOT": 0}, "tle": {"line1": "1 33722U 99025DHK 25357.77107515  .00001233  00000+0  51480-3 0  9996", "line2": "2 33722  98.5740  11.8133 0158492 219.6106 139.3406 14.21389209923046"}}, "geometry": {"type": "Point", "coordinates": [-173.26873677021183, -37.1333150071757]}}, {"type": "Feature", "properties": {"norad_id": 33723, "name": "FENGYUN 1C DEB", "group": "fengyun-1c-debris", "lat": -38.934094177200116, "lon": 87.6390836931742, "alt_km": 789.8236926443315, "timestamp": "2025-12-25T07:00:34.335698+00:00", "meta": {"OBJECT_NAME": "FENGYUN 1C DEB", "OBJECT_ID": "1999-025DHL", "EPOCH": "2025-12-20T04:59:52.476864", "MEAN_MOTION": 14.13346573, "ECCENTRICITY": 0.00986593, "INCLINATION": 99.1535, "RA_OF_ASC_NODE": 74.9552, "ARG_OF_PERICENTER": 309.2442, "MEAN_ANOMALY": 78.1701, "EPHEMERIS_TYPE": 0, "CLASSIFICATION_TYPE": "U", "NORAD_CAT_ID": 33723, "ELEMENT_SET_NO": 999, "REV_AT_EPOCH": 63729, "BSTAR": 0.001358788, "MEAN_MOTION_DOT": 2.624e-05, "MEAN_MOTION_DDOT": 0}, "tle": {"line1": "1 33723U 99025DHL 25354.20824626  .00002624  00000+0  13588-2 0  9992", "line2": "2 33723  99.1535  74.9552 0098659 309.2442  78.1701 14.13346573637293"}}, "geometry": {"type": "Point", "coordinates": [87.6390836931742, -38.934094177200116]}}, {"type": "Feature", "properties": {"norad_id": 33724, "name": "FENGYUN 1C DEB", "group": "fengyun-1c-debris", "lat": -21.62363541367365, "lon": 12.684046721370894, "alt_km": 851.3457455929356, "timestamp": "2025-12-25T07:00:34.335708+00:00", "meta": {"OBJECT_NAME": "FENGYUN 1C DEB", "OBJECT_ID": "1999-025DHM", "EPOCH": "2025-12-22T06:40:37.155648", "MEAN_MOTION": 14.19663244, "ECCENTRICITY": 0.00279005, "INCLINATION": 98.6032, "RA_OF_ASC_NODE": 6.3154, "ARG_OF_PERICENTER": 154.2406, "MEAN_ANOMALY": 269.5567, "EPHEMERIS_TYPE": 0, "CLASSIFICATION_TYPE": "U", "NORAD_CAT_ID": 33724, "ELEMENT_SET_NO": 999, "REV_AT_EPOCH": 94097, "BSTAR": 0.00040045162, "MEAN_MOTION_DOT": 8.07e-06, "MEAN_MOTION_DDOT": 0}, "tle": {"line1": "1 33724U 99025DHM 25356.27820782  .00000807  00000+0  40045-3 0  9991", "line2": "2 33724  98.6032   6.3154 0027900 154.2406 269.5567 14.19663244940977"}}, "geometry": {"type": "Point", "coordinates": [12.684046721370894, -21.62363541367365]}}, {"type": "Feature", "properties": {"norad_id": 33726, "name": "FENGYUN 1C DEB", "group": "fengyun-1c-debris", "lat": 81.35024774613684, "lon": 35.092855959667574, "alt_km": 845.4739861148873, "timestamp": "2025-12-25T07:00:34.335719+00:00", "meta": {"OBJECT_NAME": "FENGYUN 1C DEB", "OBJECT_ID": "1999-025DHP", "EPOCH": "2025-12-22T07:25:21.024768", "MEAN_MOTION": 14.14317357, "ECCENTRICITY": 0.01922665, "INCLINATION": 98.6392, "RA_OF_ASC_NODE": 120.2126, "ARG_OF_PERICENTER": 3.7011, "MEAN_ANOMALY": 25.3001, "EPHEMERIS_TYPE": 0, "CLASSIFICATION_TYPE": "U", "NORAD_CAT_ID": 33726, "ELEMENT_SET_NO": 999, "REV_AT_EPOCH": 92067, "BSTAR": 0.00027067796, "MEAN_MOTION_DOT": 5.74e-06, "MEAN_MOTION_DDOT": 0}, "tle": {"line1": "1 33726U 99025DHP 25356.30927112  .00000574  00000+0  27068-3 0  9993", "line2": "2 33726  98.6392 120.2126 0192266   3.7011  25.3001 14.14317357920673"}}, "geometry": {"type": "Point", "coordinates": [35.092855959667574, 81.35024774613684]}}]}